<?xml version='1.0' encoding='utf-8'?>
<q:quakeml xmlns="http://quakeml.org/xmlns/bed/1.2" xmlns:q="http://quakeml.org/xmlns/quakeml/1.2">
  <eventParameters publicID="smi:local/21671bae-a6dc-4a49-a264-de8a1198fc63">
    <event publicID="smi:local/2016_11_17t14_40_03_20170205T024904.031724">
      <preferredOriginID>smi:local/8641f5f4-ce1c-4b2a-976f-c3a23b470f8f</preferredOriginID>
      <preferredMagnitudeID>smi:local/2af18fe2-4587-4039-8730-4d1781ee40cc</preferredMagnitudeID>
      <comment id="smi:local/6f0ece6f-2a6a-46f2-a622-881d6554b7a2">
        <text>Template: 2016_11_17t14_40_03</text>
      </comment>
      <comment id="smi:local/7e4fca65-c7ed-4d4c-b369-3ea5f8e89e4e">
        <text>threshold=6.6</text>
      </comment>
      <comment id="smi:local/0cb3a174-e447-4f22-b192-92188979a6ea">
        <text>detect_val=11.19686222076416</text>
      </comment>
      <comment id="smi:local/966107d3-30cf-4e26-8e31-638cb675e0c4">
        <text>channels used: ('BHW', 'HHZ') ('BSWZ', 'EHZ') ('CAW', 'EHE') ('CAW', 'EHN') ('CAW', 'EHZ') ('DSZ', 'HHE') ('DSZ', 'HHN') ('DSZ', 'HHZ') ('DUWZ', 'EHZ') ('GVZ', 'HHE') ('GVZ', 'HHN') ('KHZ', 'HHE') ('KHZ', 'HHN') ('KHZ', 'HHZ') ('KIW', 'EHE') ('KIW', 'EHN') ('KIW', 'EHZ') ('LTZ', 'HHE') ('LTZ', 'HHN') ('LTZ', 'HHZ') ('MQZ', 'HHE') ('MQZ', 'HHN') ('MRNZ', 'EHE') ('MRNZ', 'EHN') ('MRNZ', 'EHZ') ('MTW', 'EHE') ('MTW', 'EHN') ('MTW', 'EHZ') ('NNZ', 'HHE') ('NNZ', 'HHN') ('NNZ', 'HHZ') ('OGWZ', 'EHE') ('OGWZ', 'EHN') ('OGWZ', 'EHZ') ('TCW', 'EHE') ('TCW', 'EHN') ('TCW', 'EHZ') ('THZ', 'HHZ') ('TKNZ', 'EHE') ('TKNZ', 'EHN') ('TKNZ', 'EHZ') ('WEL', 'HHE') ('WEL', 'HHN') ('WEL', 'HHZ')</text>
      </comment>
      <creationInfo>
        <author>EQcorrscan</author>
        <creationTime>2019-11-09T22:47:08.735648Z</creationTime>
      </creationInfo>
      <origin publicID="smi:local/729f3e58-8f62-44f6-9e44-8a5f5867700e">
        <time>
          <value>2017-02-05T02:48:59.051724Z</value>
        </time>
        <latitude>
          <value>-41.731632</value>
        </latitude>
        <longitude>
          <value>174.154574</value>
        </longitude>
        <depth>
          <value>13620.0</value>
        </depth>
        <timeFixed>false</timeFixed>
        <type>hypocenter</type>
        <evaluationMode>automatic</evaluationMode>
        <evaluationStatus>preliminary</evaluationStatus>
        <comment id="smi:local/1cb1c2b3-4c93-4610-af6a-92844b3d0f7a">
          <text>Origin automatically assigned based on template origin: use with caution.</text>
        </comment>
        <creationInfo>
          <author>EQcorrscan</author>
          <creationTime>2019-11-09T22:47:08.743147Z</creationTime>
        </creationInfo>
      </origin>
      <origin publicID="smi:local/eaaf2522-a8ab-4de0-8509-76af7de6aea4">
        <time>
          <value>2017-02-05T02:48:59.035047Z</value>
        </time>
        <latitude>
          <value>-41.731632</value>
        </latitude>
        <longitude>
          <value>174.154574</value>
        </longitude>
        <depth>
          <value>13620.0</value>
        </depth>
        <timeFixed>false</timeFixed>
        <type>hypocenter</type>
        <evaluationMode>automatic</evaluationMode>
        <evaluationStatus>preliminary</evaluationStatus>
        <comment id="smi:local/ab394c99-728f-4263-8af5-2265538f7232">
          <text>Origin automatically assigned based on template origin: use with caution.</text>
        </comment>
        <creationInfo>
          <author>EQcorrscan</author>
          <creationTime>2019-11-09T22:49:05.927057Z</creationTime>
        </creationInfo>
      </origin>
      <origin publicID="smi:local/e2733388-a033-4492-ae36-8ae817137ed9">
        <time>
          <value>2017-02-05T02:48:57.200000Z</value>
        </time>
        <latitude>
          <value>-41.739</value>
        </latitude>
        <longitude>
          <value>174.146</value>
        </longitude>
        <depth>
          <value>32600.0</value>
        </depth>
        <quality>
          <standardError>1.2</standardError>
        </quality>
        <comment id="smi:local/33a8381c-7f50-4425-bed9-1ddbd5b07ec0">
          <text>Number of stations=18</text>
        </comment>
        <arrival publicID="smi:local/2ddc8eeb-8322-4b03-bbb1-d78e41842a73">
          <pickID>smi:local/0815894a-53fa-4021-8ec9-11d0773146e9</pickID>
          <phase>P</phase>
          <azimuth>277.0</azimuth>
          <distance>0.20414600454355183</distance>
          <timeResidual>-0.84</timeResidual>
          <timeWeight>0.0</timeWeight>
        </arrival>
        <arrival publicID="smi:local/1004ea78-b9a3-44df-9704-6d4b9a623543">
          <pickID>smi:local/3ebc570a-d81d-47b9-a4d6-5e67b2293ff9</pickID>
          <phase>P</phase>
          <azimuth>11.0</azimuth>
          <distance>0.5368949987334821</distance>
          <timeResidual>-0.56</timeResidual>
          <timeWeight>0.0</timeWeight>
        </arrival>
        <arrival publicID="smi:local/470d62b5-5e63-4e0a-9b60-5ac2c84d907e">
          <pickID>smi:local/34b87e38-c208-4cac-85b9-9219b0345862</pickID>
          <phase>S</phase>
          <azimuth>11.0</azimuth>
          <distance>0.5368949987334821</distance>
          <timeResidual>-2.46</timeResidual>
          <timeWeight>0.0</timeWeight>
        </arrival>
        <arrival publicID="smi:local/af61c249-e277-4301-b2d7-de0cac17ff96">
          <pickID>smi:local/56c98926-d123-45e4-9d9a-66827cd428c1</pickID>
          <phase>S</phase>
          <azimuth>11.0</azimuth>
          <distance>0.5368949987334821</distance>
          <timeWeight>0.0</timeWeight>
        </arrival>
        <arrival publicID="smi:local/b6e12152-c760-4312-9df3-a89cf455d1ee">
          <pickID>smi:local/7dc6bceb-5898-452e-9d6f-7d5440840542</pickID>
          <phase>P</phase>
          <azimuth>59.0</azimuth>
          <distance>0.6367196969904612</distance>
          <timeResidual>0.21</timeResidual>
          <timeWeight>0.0</timeWeight>
        </arrival>
        <arrival publicID="smi:local/79b9b876-0dc2-4e63-a276-45043c7f1d44">
          <pickID>smi:local/b0df7351-5996-4d99-bf07-fcdc8e5f20ce</pickID>
          <phase>P</phase>
          <azimuth>46.0</azimuth>
          <distance>0.6520081642910797</distance>
          <timeResidual>0.21</timeResidual>
          <timeWeight>0.0</timeWeight>
        </arrival>
        <arrival publicID="smi:local/cfe10606-8934-4ccd-a507-a866bea62948">
          <pickID>smi:local/da8eed74-484c-40a1-8f86-99bd92b3aa87</pickID>
          <phase>S</phase>
          <azimuth>46.0</azimuth>
          <distance>0.6520081642910797</distance>
          <timeWeight>0.0</timeWeight>
        </arrival>
        <arrival publicID="smi:local/1f12929d-cecf-4c1e-98f2-abcb0350d849">
          <pickID>smi:local/df2718d4-a097-4ecd-b7ee-81d7d44b984d</pickID>
          <phase>S</phase>
          <azimuth>46.0</azimuth>
          <distance>0.6520081642910797</distance>
          <timeResidual>-0.95</timeResidual>
          <timeWeight>0.0</timeWeight>
        </arrival>
        <arrival publicID="smi:local/7ba7960b-dfe3-4717-a933-c1ff2cf285a4">
          <pickID>smi:local/18c1e0cc-a078-4f18-80b0-412fd232f968</pickID>
          <phase>P</phase>
          <azimuth>312.0</azimuth>
          <distance>0.7770138675137832</distance>
          <timeResidual>-0.07</timeResidual>
          <timeWeight>0.0</timeWeight>
        </arrival>
        <arrival publicID="smi:local/ac35e3c9-8727-4e8c-8073-66f88db273a4">
          <pickID>smi:local/cdf41925-0b56-4abf-b7b3-4762faf20e1b</pickID>
          <phase>S</phase>
          <azimuth>312.0</azimuth>
          <distance>0.7770138675137832</distance>
          <timeWeight>0.0</timeWeight>
        </arrival>
        <arrival publicID="smi:local/ac123197-3578-4fd2-bd21-b34df220aa42">
          <pickID>smi:local/09ef2d83-bce7-4fb5-a4a9-3449e418dcff</pickID>
          <phase>S</phase>
          <azimuth>312.0</azimuth>
          <distance>0.7770138675137832</distance>
          <timeResidual>-1.93</timeResidual>
          <timeWeight>0.0</timeWeight>
        </arrival>
        <arrival publicID="smi:local/80590401-f1c1-47a9-80ee-3b1065501294">
          <pickID>smi:local/7dc231e0-bbb1-44c5-a298-a7112735d3f0</pickID>
          <phase>P</phase>
          <azimuth>214.0</azimuth>
          <distance>0.8129867317505325</distance>
          <timeResidual>1.34</timeResidual>
          <timeWeight>0.0</timeWeight>
        </arrival>
        <arrival publicID="smi:local/36e35ea5-a151-4e40-9310-897e293bd38d">
          <pickID>smi:local/67764684-a29a-487e-9135-c662f23e287a</pickID>
          <phase>S</phase>
          <azimuth>214.0</azimuth>
          <distance>0.8129867317505325</distance>
          <timeWeight>0.0</timeWeight>
        </arrival>
        <arrival publicID="smi:local/fcd0109e-ebf2-4c42-bf37-21093fc24f9c">
          <pickID>smi:local/16aa428f-26cd-414b-8b4f-181810e9a634</pickID>
          <phase>S</phase>
          <azimuth>214.0</azimuth>
          <distance>0.8129867317505325</distance>
          <timeResidual>1.22</timeResidual>
          <timeWeight>0.0</timeWeight>
        </arrival>
        <arrival publicID="smi:local/64cc6fb1-306e-4f34-a311-eb8c8b4f4e79">
          <pickID>smi:local/816283d9-d93b-4fd9-bb10-c6f7e9b43000</pickID>
          <phase>P</phase>
          <azimuth>268.0</azimuth>
          <distance>0.9263012540962925</distance>
          <timeResidual>0.57</timeResidual>
          <timeWeight>0.0</timeWeight>
        </arrival>
        <arrival publicID="smi:local/0775c592-70d3-4705-a6f4-2ad3b31d7253">
          <pickID>smi:local/9db87992-b878-427e-af4e-c19e703d8b16</pickID>
          <phase>P</phase>
          <azimuth>48.0</azimuth>
          <distance>0.9352944701554797</distance>
          <timeResidual>0.2</timeResidual>
          <timeWeight>0.0</timeWeight>
        </arrival>
        <arrival publicID="smi:local/0691e7b9-923a-4310-850a-afa222919150">
          <pickID>smi:local/4c63caba-a84b-4738-9a6d-1f3e35a62acd</pickID>
          <phase>S</phase>
          <azimuth>48.0</azimuth>
          <distance>0.9352944701554797</distance>
          <timeResidual>1.38</timeResidual>
          <timeWeight>0.0</timeWeight>
        </arrival>
        <arrival publicID="smi:local/f0a086c0-6e02-4b12-9d9a-2be43a6030b9">
          <pickID>smi:local/b5400474-6221-4b37-abad-404314b61292</pickID>
          <phase>S</phase>
          <azimuth>48.0</azimuth>
          <distance>0.9352944701554797</distance>
          <timeWeight>0.0</timeWeight>
        </arrival>
        <arrival publicID="smi:local/b8bfb4e6-2354-4003-a5a1-21a8f9736174">
          <pickID>smi:local/9e7a7824-26b5-4d83-9eae-7b21c9f7ce7a</pickID>
          <phase>P</phase>
          <azimuth>350.0</azimuth>
          <distance>0.9532809022738544</distance>
          <timeResidual>-0.21</timeResidual>
          <timeWeight>0.0</timeWeight>
        </arrival>
        <arrival publicID="smi:local/2cf02019-98f8-43e1-a2e9-2d77f57d9d26">
          <pickID>smi:local/9744365f-014c-4a16-80ab-0f6ecf58dfa5</pickID>
          <phase>P</phase>
          <azimuth>33.0</azimuth>
          <distance>1.0522062789249147</distance>
          <timeResidual>0.26</timeResidual>
          <timeWeight>0.0</timeWeight>
        </arrival>
        <arrival publicID="smi:local/92916ec7-d087-4d75-842a-48066fbd6a38">
          <pickID>smi:local/afbe79df-0586-463c-97c1-d45cb856e180</pickID>
          <phase>S</phase>
          <azimuth>33.0</azimuth>
          <distance>1.0522062789249147</distance>
          <timeResidual>-0.36</timeResidual>
          <timeWeight>0.0</timeWeight>
        </arrival>
        <arrival publicID="smi:local/19acf17f-43d1-4848-91ed-bce1c29fc499">
          <pickID>smi:local/36cc058c-844b-4c4b-8584-93d8b52fcd6b</pickID>
          <phase>S</phase>
          <azimuth>33.0</azimuth>
          <distance>1.0522062789249147</distance>
          <timeWeight>0.0</timeWeight>
        </arrival>
        <arrival publicID="smi:local/0376e677-aae8-4cbf-ac20-2af918f8577d">
          <pickID>smi:local/b490308e-ced7-4ac8-ad53-6bab8816c250</pickID>
          <phase>P</phase>
          <azimuth>288.0</azimuth>
          <distance>1.0971723592208513</distance>
          <timeResidual>1.11</timeResidual>
          <timeWeight>0.0</timeWeight>
        </arrival>
        <arrival publicID="smi:local/6a093264-59ea-4f04-b51e-6d114a9ebe66">
          <pickID>smi:local/9142a2f4-941b-42aa-802a-bebbc802b2eb</pickID>
          <phase>S</phase>
          <azimuth>288.0</azimuth>
          <distance>1.0971723592208513</distance>
          <timeWeight>0.0</timeWeight>
        </arrival>
        <arrival publicID="smi:local/29a2a9f5-643e-4a72-83f9-10042cd8b295">
          <pickID>smi:local/ad130898-5ea4-4d43-8b0d-d3de9d7d261c</pickID>
          <phase>S</phase>
          <azimuth>288.0</azimuth>
          <distance>1.0971723592208513</distance>
          <timeResidual>0.34</timeResidual>
          <timeWeight>0.0</timeWeight>
        </arrival>
        <arrival publicID="smi:local/dea16bce-6ae8-4599-a256-b9f9412ff2a2">
          <pickID>smi:local/80b508d9-2af9-4591-9635-059484eaedb8</pickID>
          <phase>P</phase>
          <azimuth>308.0</azimuth>
          <distance>1.1331452234576005</distance>
          <timeResidual>0.86</timeResidual>
          <timeWeight>0.0</timeWeight>
        </arrival>
        <arrival publicID="smi:local/030ca889-0870-46d0-951c-f65be60c6b5f">
          <pickID>smi:local/286c0b0e-7880-428d-8a40-9992eea3494d</pickID>
          <phase>S</phase>
          <azimuth>308.0</azimuth>
          <distance>1.1331452234576005</distance>
          <timeWeight>0.0</timeWeight>
        </arrival>
        <arrival publicID="smi:local/53a06f90-60af-4024-9fc9-f980c11ba736">
          <pickID>smi:local/8cd2652e-7fdc-4a35-875f-865b0e0124dc</pickID>
          <phase>S</phase>
          <azimuth>308.0</azimuth>
          <distance>1.1331452234576005</distance>
          <timeResidual>0.47</timeResidual>
          <timeWeight>0.0</timeWeight>
        </arrival>
        <arrival publicID="smi:local/55832210-512c-4832-ad55-9cecca1522cd">
          <pickID>smi:local/15d05593-be3e-47e1-a0b5-6bdb8f12a906</pickID>
          <phase>P</phase>
          <azimuth>61.0</azimuth>
          <distance>1.1691180876943497</distance>
          <timeResidual>-0.05</timeResidual>
          <timeWeight>0.0</timeWeight>
        </arrival>
        <arrival publicID="smi:local/be7cd814-f73e-4210-833b-d2110a25bc8b">
          <pickID>smi:local/e1f38c39-3979-4994-a5da-1e324e7b8e03</pickID>
          <phase>S</phase>
          <azimuth>61.0</azimuth>
          <distance>1.1691180876943497</distance>
          <timeWeight>0.0</timeWeight>
        </arrival>
        <arrival publicID="smi:local/8bb4bd81-575e-4cb2-823d-3c141785f2e2">
          <pickID>smi:local/0fc7ee59-5176-460d-a009-5b3711d43e7a</pickID>
          <phase>S</phase>
          <azimuth>61.0</azimuth>
          <distance>1.1691180876943497</distance>
          <timeResidual>-0.28</timeResidual>
          <timeWeight>0.0</timeWeight>
        </arrival>
        <arrival publicID="smi:local/860f3507-b066-4a3e-8122-f1a8f1374a3c">
          <pickID>smi:local/23a52c9d-d6d7-4b9e-94e6-1184a80e2bad</pickID>
          <phase>P</phase>
          <azimuth>40.0</azimuth>
          <distance>1.2050909519310988</distance>
          <timeResidual>0.62</timeResidual>
          <timeWeight>0.0</timeWeight>
        </arrival>
        <arrival publicID="smi:local/d35ebbf6-83fb-470d-af9e-2f537d990add">
          <pickID>smi:local/1510d18e-4a5f-4f7b-9b56-ad3cf2cd408f</pickID>
          <phase>S</phase>
          <azimuth>214.0</azimuth>
          <distance>1.4748874337067182</distance>
          <timeResidual>-0.84</timeResidual>
          <timeWeight>0.0</timeWeight>
        </arrival>
        <arrival publicID="smi:local/17e605b6-03ad-488c-b5de-1366235ee231">
          <pickID>smi:local/2e836f59-80e0-463b-b70a-965a056ab2eb</pickID>
          <phase>P</phase>
          <azimuth>233.0</azimuth>
          <distance>1.73569069942315</distance>
          <timeResidual>0.31</timeResidual>
          <timeWeight>0.0</timeWeight>
        </arrival>
        <arrival publicID="smi:local/0d489d7b-c863-4c03-b470-2e81090fa0ed">
          <pickID>smi:local/4647a238-0004-46cf-bfcd-4262d49b4de0</pickID>
          <phase>S</phase>
          <azimuth>233.0</azimuth>
          <distance>1.73569069942315</distance>
          <timeWeight>0.0</timeWeight>
        </arrival>
        <arrival publicID="smi:local/c77047e2-e722-476a-89ab-fe103798ce8d">
          <pickID>smi:local/889e9d32-55de-4cee-be44-2e8d5bc32b74</pickID>
          <phase>S</phase>
          <azimuth>233.0</azimuth>
          <distance>1.73569069942315</distance>
          <timeResidual>-0.88</timeResidual>
          <timeWeight>0.0</timeWeight>
        </arrival>
        <arrival publicID="smi:local/3ba2d611-87e1-4652-8cdd-24b3eee847ea">
          <pickID>smi:local/c4c5ed04-d47b-4b8b-ade9-dddf22fc0f96</pickID>
          <phase>P</phase>
          <azimuth>269.0</azimuth>
          <distance>1.7536771315415245</distance>
          <timeResidual>1.69</timeResidual>
          <timeWeight>0.0</timeWeight>
        </arrival>
        <arrival publicID="smi:local/62f19fe1-c37e-4497-8135-c4ddfed6d318">
          <pickID>smi:local/3e66d970-7df9-4c13-9ca9-00028fe63711</pickID>
          <phase>S</phase>
          <azimuth>269.0</azimuth>
          <distance>1.7536771315415245</distance>
          <timeResidual>2.12</timeResidual>
          <timeWeight>0.0</timeWeight>
        </arrival>
        <arrival publicID="smi:local/8837170d-4882-43f1-a8e5-203414ef8f22">
          <pickID>smi:local/fd8c40e4-98bf-4801-a3f3-585edb12d311</pickID>
          <phase>S</phase>
          <azimuth>269.0</azimuth>
          <distance>1.7536771315415245</distance>
          <timeWeight>0.0</timeWeight>
        </arrival>
        <arrival publicID="smi:local/94bfe700-90e8-49b8-846e-101cb199e5d8">
          <pickID>smi:local/4c926462-23e5-474a-bb7a-a686e0deb027</pickID>
          <phase>S</phase>
          <azimuth>209.0</azimuth>
          <distance>2.2483040147968265</distance>
          <timeWeight>0.0</timeWeight>
        </arrival>
        <arrival publicID="smi:local/897d0335-6387-47ee-a605-45408e1f6cdc">
          <pickID>smi:local/b9d23625-2a80-4d94-8aab-dd3aa9bf3191</pickID>
          <phase>S</phase>
          <azimuth>209.0</azimuth>
          <distance>2.2483040147968265</distance>
          <timeResidual>-3.48</timeResidual>
          <timeWeight>0.0</timeWeight>
        </arrival>
      </origin>
      <origin publicID="smi:local/8641f5f4-ce1c-4b2a-976f-c3a23b470f8f">
        <time>
          <value>2017-02-05T02:48:58.894373Z</value>
        </time>
        <latitude>
          <value>-41.746419</value>
          <uncertainty>0.007758565863554223</uncertainty>
        </latitude>
        <longitude>
          <value>174.164713</value>
          <uncertainty>0.012545165708972558</uncertainty>
        </longitude>
        <depth>
          <value>13289.062</value>
          <uncertainty>1859.139585937538</uncertainty>
          <confidenceLevel>68.0</confidenceLevel>
        </depth>
        <depthType>from location</depthType>
        <quality>
          <associatedPhaseCount>29</associatedPhaseCount>
          <usedPhaseCount>29</usedPhaseCount>
          <associatedStationCount>-1</associatedStationCount>
          <usedStationCount>18</usedStationCount>
          <depthPhaseCount>-1</depthPhaseCount>
          <standardError>0.278182</standardError>
          <azimuthalGap>149.885</azimuthalGap>
          <secondaryAzimuthalGap>154.786</secondaryAzimuthalGap>
          <groundTruthLevel>-</groundTruthLevel>
          <minimumDistance>0.21757197679831258</minimumDistance>
          <maximumDistance>2.2578997763319792</maximumDistance>
          <medianDistance>1.008238445611548</medianDistance>
        </quality>
        <comment>
